NORAD_CAT_ID,OBJECT_NAME,OBJECT_TYPE,EPOCH,MEAN_MOTION,ECCENTRICITY,INCLINATION,RA_OF_ASC_NODE,ARG_OF_PERICENTER,MEAN_ANOMALY,BSTAR,MEAN_MOTION_DOT,MEAN_MOTION_DDOT,TLE_LINE0,TLE_LINE1,TLE_LINE2,SEMIMAJOR_AXIS,PERIOD,APOGEE,PERIGEE,DECAYED
52347.0,STARLINK-3826,PAYLOAD,2022-12-04 10:57:56,15.08840527,0.0002729,53.2177,146.7768,47.8704,312.252,0.00010746,1.422e-05,0.0,0 STARLINK-3826,1 52347U 22045S   22338.45690448  .00001422  00000-0  10746-3 0  9992,2 52347  53.2177 146.7768 0002729  47.8704 312.2520 15.08840527 35943,6917.879,95.438,541.632,537.856,0.0
52347.0,STARLINK-3826,PAYLOAD,2022-12-04 12:33:19,15.08841771,0.0002734,53.2176,146.4795,48.1757,311.9468,0.00010962,1.457e-05,0.0,0 STARLINK-3826,1 52347U 22045S   22338.52314360  .00001457  00000-0  10962-3 0  9994,2 52347  53.2176 146.4795 0002734  48.1757 311.9468 15.08841771 35957,6917.875,95.437,541.631,537.849,0.0
52347.0,STARLINK-3826,PAYLOAD,2022-12-04 20:30:15,15.08846127,0.0002736,53.2177,144.9927,48.3657,311.7569,0.00011718,1.577e-05,0.0,0 STARLINK-3826,1 52347U 22045S   22338.85434054  .00001577  00000-0  11718-3 0  9996,2 52347  53.2177 144.9927 0002736  48.3657 311.7569 15.08846127 36008,6917.861999999999,95.437,541.619,537.8340000000002,0.0
52347.0,STARLINK-3826,PAYLOAD,2022-12-05 10:48:43,15.08842964,0.0002773,53.2178,142.3165,49.479,310.6443,6.0448e-05,6.74e-06,0.0,0 STARLINK-3826,1 52347U 22045S   22339.45050308  .00000674  00000-0  60448-4 0  9991,2 52347  53.2178 142.3165 0002773  49.4790 310.6443 15.08842964 36099,6917.871,95.437,541.655,537.818,0.0
52347.0,STARLINK-3826,PAYLOAD,2022-12-05 17:10:16,15.08841016,0.0002774,53.2179,141.127,49.9592,310.1643,4.1368e-05,3.700000000000001e-06,0.0,0 STARLINK-3826,1 52347U 22045S   22339.71546462  .00000370  00000-0  41368-4 0  9994,2 52347  53.2179 141.1270 0002774  49.9592 310.1643 15.08841016 36139,6917.877,95.437,541.661,537.823,0.0
52347.0,STARLINK-3826,PAYLOAD,2022-12-06 04:17:57,15.08844462,0.0002723999999999,53.2178,139.0456,49.5519,310.571,4.0502e-05,3.56e-06,0.0,0 STARLINK-3826,1 52347U 22045S   22340.17914171  .00000356  00000-0  40502-4 0  9995,2 52347  53.2178 139.0456 0002724  49.5519 310.5710 15.08844462 36205,6917.8669999999975,95.437,541.616,537.847,0.0
52347.0,STARLINK-3826,PAYLOAD,2022-12-06 20:11:49,15.088353,0.0002713,53.2179,136.0722,49.1046,311.0181,-8.5188e-05,-1.644e-05,0.0,0 STARLINK-3826,1 52347U 22045S   22340.84155017 -.00001644  00000-0 -85188-4 0  9997,2 52347  53.2179 136.0722 0002713  49.1046 311.0181 15.08835300 36308,6917.895,95.438,541.637,537.883,0.0
52347.0,STARLINK-3826,PAYLOAD,2022-12-06 21:47:13,15.08836052,0.0002715,53.2181,135.7749,48.9888,311.1338,-7.9014e-05,-1.546e-05,0.0,0 STARLINK-3826,1 52347U 22045S   22340.90778954 -.00001546  00000-0 -79014-4 0  9997,2 52347  53.2181 135.7749 0002715  48.9888 311.1338 15.08836052 36310,6917.892,95.438,541.636,537.879,0.0
52347.0,STARLINK-3826,PAYLOAD,2022-12-07 16:51:50,15.08839339,0.0002706,53.2182,132.2066,49.1414,310.9812,5.4413e-05,5.78e-06,0.0,0 STARLINK-3826,1 52347U 22045S   22341.70266480  .00000578  00000-0  54413-4 0  9990,2 52347  53.2182 132.2066 0002706  49.1414 310.9812 15.08839339 36431,6917.882,95.438,541.619,537.875,0.0
52347.0,STARLINK-3826,PAYLOAD,2022-12-08 10:21:04,15.08840431,0.0002816,53.2178,128.9359,50.6198,309.5043,2.8153000000000013e-05,1.6e-06,0.0,0 STARLINK-3826,1 52347U 22045S   22342.43130535  .00000160  00000-0  28153-4 0  9991,2 52347  53.2178 128.9359 0002816  50.6198 309.5043 15.08840431 36548,6917.879,95.438,541.692,537.7959999999998,0.0
52347.0,STARLINK-3826,PAYLOAD,2022-12-08 16:42:37,15.08838699,0.0002829,53.2179,127.7477,51.7091,308.4155,6.0526e-05,6.75e-06,0.0,0 STARLINK-3826,1 52347U 22045S   22342.69626590  .00000675  00000-0  60526-4 0  9991,2 52347  53.2179 127.7477 0002829  51.7091 308.4155 15.08838699 36584,6917.884,95.438,541.706,537.7919999999998,0.0
52347.0,STARLINK-3826,PAYLOAD,2022-12-09 16:33:25,15.08830669,0.0002221,53.2195,123.2895,39.3558,320.7595,-3.9533e-05,-9.17e-06,0.0,0 STARLINK-3826,1 52347U 22045S   22343.68987569 -.00000917  00000-0 -39533-4 0  9992,2 52347  53.2195 123.2895 0002221  39.3558 320.7595 15.08830669 36734,6917.909000000002,95.438,541.31,538.237,0.0
52347.0,STARLINK-3826,PAYLOAD,2022-12-10 13:13:26,15.08830079,0.0003141,53.2193,119.4246,35.0106,325.1092,-2.8396e-06,-3.34e-06,0.0,0 STARLINK-3826,1 52347U 22045S   22344.55099897 -.00000334  00000-0 -28396-5 0  9996,2 52347  53.2193 119.4246 0003141  35.0106 325.1092 15.08830079 36863,6917.911,95.438,541.9490000000002,537.6030000000002,0.0
52347.0,STARLINK-3826,PAYLOAD,2022-12-10 14:48:49,15.08834335,0.0002631,53.2191,119.1249,51.0351,309.0875,1.7485e-05,-1e-07,0.0,0 STARLINK-3826,1 52347U 22045S   22344.61723673 -.00000010  00000-0  17485-4 0  9995,2 52347  53.2191 119.1249 0002631  51.0351 309.0875 15.08834335 36874,6917.898,95.438,541.5830000000002,537.943,0.0
52347.0,STARLINK-3826,PAYLOAD,2022-12-11 13:04:12,15.08828804,0.0002695,53.2195,114.9605,46.0375,314.0839,0.00020639,2.997e-05,0.0,0 STARLINK-3826,1 52347U 22045S   22345.54459418  .00002997  00000-0  20639-3 0  9990,2 52347  53.2195 114.9605 0002695  46.0375 314.0839 15.08828804 37014,6917.915,95.438,541.644,537.915,0.0
52347.0,STARLINK-3826,PAYLOAD,2022-12-11 16:14:59,15.08837789,0.0002627,53.2191,114.3657,44.7129,315.4075,0.00013877,1.921e-05,0.0,0 STARLINK-3826,1 52347U 22045S   22345.67707196  .00001921  00000-0  13877-3 0  9995,2 52347  53.2191 114.3657 0002627  44.7129 315.4075 15.08837789 37039,6917.887,95.438,541.569,537.935,0.0
52347.0,STARLINK-3826,PAYLOAD,2022-12-12 09:44:13,15.08841004,0.0002983,53.2197,111.1014,38.2722,321.8481,0.00012197,1.653e-05,0.0,0 STARLINK-3826,1 52347U 22045S   22346.40571232  .00001653  00000-0  12197-3 0  9993,2 52347  53.2197 111.1014 0002983  38.2722 321.8481 15.08841004 37148,6917.877,95.437,541.806,537.679,0.0
52347.0,STARLINK-3826,PAYLOAD,2022-12-13 01:38:04,15.08847611,0.0002533,53.2182,108.1275,31.3962,328.7181,4.4941e-05,4.27e-06,0.0,0 STARLINK-3826,1 52347U 22045S   22347.06810803  .00000427  00000-0  44941-4 0  9997,2 52347  53.2182 108.1275 0002533  31.3962 328.7181 15.08847611 37242,6917.857,95.437,541.474,537.97,0.0
52347.0,STARLINK-3826,PAYLOAD,2022-12-13 14:21:10,15.08841759,0.0002693,53.2187,105.7418,46.8281,313.2936,1.2852e-05,-8.4e-07,0.0,0 STARLINK-3826,1 52347U 22045S   22347.59803355 -.00000084  00000-0  12852-4 0  9995,2 52347  53.2187 105.7418 0002693  46.8281 313.2936 15.08841759 37324,6917.875,95.437,541.6030000000002,537.877,0.0
52347.0,STARLINK-3826,PAYLOAD,2022-12-14 11:01:10,15.088556,0.000262,53.2175,101.8769,70.9191,289.2085,-0.00015212,-2.71e-05,0.0,0 STARLINK-3826,1 52347U 22045S   22348.45914701 -.00002710  00000-0 -15212-3 0  9990,2 52347  53.2175 101.8769 0002620  70.9191 289.2085 15.08855600 37456,6917.833000000001,95.437,541.51,537.885,0.0
52347.0,STARLINK-3826,PAYLOAD,2022-12-14 18:58:06,15.08848215,0.0002644,53.2189,100.3937,47.1968,312.9246,-8.4497e-05,-1.633e-05,0.0,0 STARLINK-3826,1 52347U 22045S   22348.79034969 -.00001633  00000-0 -84497-4 0  9991,2 52347  53.2189 100.3937 0002644  47.1968 312.9246 15.08848215 37509,6917.855,95.437,541.549,537.891,0.0
52347.0,STARLINK-3826,PAYLOAD,2022-12-15 07:41:11,15.08840807,0.0003259,53.2199,98.0137,38.4801,321.6423,3.0425e-05,1.96e-06,0.0,0 STARLINK-3826,1 52347U 22045S   22349.32027413  .00000196  00000-0  30425-4 0  9990,2 52347  53.2199  98.0137 0003259  38.4801 321.6423 15.08840807 37588,6917.878000000002,95.438,541.997,537.488,0.0
52347.0,STARLINK-3826,PAYLOAD,2022-12-15 14:02:44,15.08838013,0.0002488,53.2185,96.8212,42.6348,317.4837,1.7799e-05,-5e-08,0.0,0 STARLINK-3826,1 52347U 22045S   22349.58523560 -.00000005  00000-0  17799-4 0  9991,2 52347  53.2185  96.8212 0002488  42.6348 317.4837 15.08838013 37622,6917.886,95.438,541.4730000000002,538.03,0.0
52347.0,STARLINK-3826,PAYLOAD,2022-12-15 18:48:53,15.08844335,0.0002322,53.2188,95.9286,44.5418,315.576,6.0803e-05,6.8e-06,0.0,0 STARLINK-3826,1 52347U 22045S   22349.78394992  .00000680  00000-0  60803-4 0  9990,2 52347  53.2188  95.9286 0002322  44.5418 315.5760 15.08844335 37653,6917.8669999999975,95.437,541.3380000000002,538.126,0.0
52347.0,STARLINK-3826,PAYLOAD,2022-12-16 13:53:30,15.08844677,0.0002476,53.2192,92.3629,31.2405,328.8733,7.3128e-05,8.76e-06,0.0,0 STARLINK-3826,1 52347U 22045S   22350.57882868  .00000876  00000-0  73128-4 0  9994,2 52347  53.2192  92.3629 0002476  31.2405 328.8733 15.08844677 37778,6917.866,95.437,541.444,538.018,0.0
52347.0,STARLINK-3826,PAYLOAD,2022-12-16 17:04:17,15.08841734,0.0002519,53.2186,91.7687,29.842,330.2716,5.7844e-05,6.32e-06,0.0,0 STARLINK-3826,1 52347U 22045S   22350.71131080  .00000632  00000-0  57844-4 0  9990,2 52347  53.2186  91.7687 0002519  29.8420 330.2716 15.08841734 37797,6917.875,95.437,541.4830000000002,537.997,0.0
52347.0,STARLINK-3826,PAYLOAD,2022-12-16 23:25:50,15.08828726,0.000247,53.2193,90.5772,35.2174,324.8981,-4.1866e-06,-3.55e-06,0.0,0 STARLINK-3826,1 52347U 22045S   22350.97628178 -.00000355  00000-0 -41866-5 0  9999,2 52347  53.2193  90.5772 0002470  35.2174 324.8981 15.08828726 37834,6917.915,95.438,541.489,538.071,0.0
52347.0,STARLINK-3826,PAYLOAD,2022-12-17 13:44:19,15.08830437,0.0002303,53.2185,87.9025,34.7988,325.3154,-5.090100000000001e-05,-1.098e-05,0.0,0 STARLINK-3826,1 52347U 22045S   22351.57244684 -.00001098  00000-0 -50901-4 0  9996,2 52347  53.2185  87.9025 0002303  34.7988 325.3154 15.08830437 37928,6917.91,95.438,541.368,538.181,0.0
52347.0,STARLINK-3826,PAYLOAD,2022-12-18 05:38:10,15.08837789,0.0002355,53.2197,84.9286,36.6892,323.4261,3.9039e-05,3.33e-06,0.0,0 STARLINK-3826,1 52347U 22045S   22352.23484227  .00000333  00000-0  39039-4 0  9997,2 52347  53.2197  84.9286 0002355  36.6892 323.4261 15.08837789 38026,6917.887,95.438,541.381,538.123,0.0
